OBJECT_NAME,OBJECT_ID,EPOCH,MEAN_MOTION,ECCENTRICITY,INCLINATION,RA_OF_ASC_NODE,ARG_OF_PERICENTER,MEAN_ANOMALY,EPHEMERIS_TYPE,CLASSIFICATION_TYPE,NORAD_CAT_ID,ELEMENT_SET_NO,REV_AT_EPOCH,BSTAR,MEAN_MOTION_DOT,MEAN_MOTION_DDOT
SL-12 R/B(2),1985-042D,2026-06-11T16:25:59.052000,14.22004905,.0035998,71.1082,249.1414,336.1213,133.2351,0,U,15772,999,12775,.56622E-5,-.35E-6,0
SL-14 R/B,1985-069B,2026-06-11T15:35:17.421216,14.86511386,.0017447,82.5267,296.5742,238.7044,121.2464,0,U,15945,999,18679,.43705E-4,.412E-5,0
SL-16 R/B,1985-097B,2026-06-11T16:19:54.062112,14.16611626,.0005487,71.0037,302.6713,122.7238,253.8111,0,U,16182,999,10054,-.88341E-4,-.224E-5,0
SL-14 R/B,1986-006B,2026-06-11T12:48:13.802976,14.86939992,.0075352,82.5261,171.4338,322.5279,37.0697,0,U,16496,999,16315,.52884E-4,.523E-5,0
COSMOS 1743,1986-034A,2026-06-11T12:37:37.329600,15.66440250,.0003724,82.5272,334.7502,297.9472,62.1411,0,U,16719,999,19490,.43329E-3,.45185E-3,0
SL-14 R/B,1986-046B,2026-06-11T15:07:18.467040,14.85667365,.0021588,82.4816,351.4272,278.1802,81.6965,0,U,16792,999,14035,.36386E-4,.34E-5,0
SL-14 R/B,1986-055B,2026-06-11T18:12:22.290048,14.85719477,.0019547,82.5209,38.2371,25.2886,43.1088,0,U,16882,999,13333,.36845E-4,.345E-5,0
AJISAI (EGS),1986-061A,2026-06-11T20:02:20.518944,12.44516805,.0011244,50.0062,163.8533,167.0105,261.2748,0,U,16908,999,47972,.1395E-3,-.78E-6,0
SL-14 R/B,1987-024B,2026-06-11T15:06:17.400384,14.86209584,.0017083,82.5281,4.4750,313.1100,46.8687,0,U,17567,999,10208,.36783E-4,.348E-5,0
COSMOS 1833,1987-027A,2026-06-11T15:46:46.241760,14.13045831,.0022664,70.9167,128.4915,64.3044,296.0414,0,U,17589,999,2359,.19566E-3,.318E-5,0
SL-16 R/B,1987-027B,2026-06-11T17:03:12.229344,14.17172642,.0006299,71.0034,78.3692,318.7677,41.2970,0,U,17590,999,2866,-.15339E-6,-.48E-6,0
SL-14 R/B,1987-038B,2026-06-11T14:31:33.366720,14.85442014,.0018405,82.5012,208.3301,210.1729,149.8429,0,U,17912,999,9317,.33494E-4,.314E-5,0
COSMOS 1844,1987-041A,2026-06-11T12:29:50.645184,14.14569188,.0033151,70.8977,196.2601,243.7540,116.0173,0,U,17973,999,1685,-.62287E-4,-.169E-5,0
SL-14 R/B,1987-055B,2026-06-11T16:48:39.216960,14.85707392,.0021987,82.4996,260.4011,64.7787,295.5705,0,U,18153,999,8389,.38261E-4,.358E-5,0
COSMOS 1867,1987-060A,2026-06-11T09:42:39.962016,14.31515147,.001641,65.0116,44.2533,282.1424,77.7822,0,U,18187,999,3335,.12765E-4,-.66E-6,0
SL-14 R/B,1988-001B,2026-06-11T13:37:00.532128,14.85605616,.001654,82.5129,107.0604,289.8975,70.0458,0,U,18749,999,5596,.40138E-4,.372E-5,0
COSMOS 1933,1988-020A,2026-06-11T12:04:12.935136,15.18677988,.000288,82.5116,158.0641,208.9825,151.1250,0,U,18958,999,6446,.13599E-3,.2849E-4,0
SL-3 R/B,1988-032B,2026-06-11T20:20:54.881952,15.20800340,.0023635,97.5248,145.8938,265.0727,94.7809,0,U,19046,999,6641,.16952E-3,.3692E-4,0
SL-16 R/B,1988-039B,2026-06-11T14:59:43.608192,14.19629562,.0022568,71.0143,229.9198,201.3504,158.6682,0,U,19120,999,97171,-.13907E-4,-.78E-6,0
COSMOS 1953,1988-050A,2026-06-11T18:52:26.553216,15.29902402,.001174,82.5085,63.4800,142.9494,217.2559,0,U,19210,999,5216,.24359E-3,.7098E-4,0
SL-8 R/B,1988-053B,2026-06-11T20:55:26.416128,14.38965458,.0019168,74.0479,298.8553,96.1593,21.4456,0,U,19257,999,99014,.56013E-4,.147E-5,0
COSMOS 1975,1988-093A,2026-06-11T15:47:36.579264,15.29256651,.0010738,82.5202,23.2641,190.8843,169.2166,0,U,19573,999,3376,.22921E-3,.6547E-4,0
SL-14 R/B,1988-093B,2026-06-11T16:10:36.062400,14.85737643,.0022191,82.5307,313.8210,87.4376,286.8018,0,U,19574,999,1497,.42453E-4,.395E-5,0
SL-16 R/B,1988-102B,2026-06-11T20:22:28.344288,14.16165879,.0016006,71.0004,313.3717,232.9308,127.0352,0,U,19650,999,94022,-.87746E-4,-.222E-5,0
INTERCOSMOS 24,1989-080A,2026-06-11T16:41:02.474592,12.59653024,.1188403,82.6071,43.2182,74.6372,298.2671,0,U,20261,999,67863,.23096E-3,.816E-5,0
SL-14 R/B,1989-080C,2026-06-11T13:30:04.719168,12.50567357,.1229054,82.5925,112.9210,330.2731,23.3619,0,U,20262,999,67188,.9929E-4,.333E-5,0
DELTA 1 R/B,1989-089B,2026-06-11T13:31:25.077216,14.50727638,.006874,97.0638,355.0216,184.7105,175.3454,0,U,20323,999,90934,.80821E-4,.292E-5,0
ARIANE 40 R/B,1990-005H,2026-06-11T16:39:29.255040,14.39924562,.0008823,98.2959,220.4806,283.3599,76.6606,0,U,20443,999,90633,.78178E-4,.204E-5,0
DELTA 2 R/B(1),1990-008B,2026-06-11T14:08:18.644352,15.67947352,.006614,35.6002,273.0862,61.0477,299.6874,0,U,20453,999,94082,.62951E-3,.82334E-3,0
COSMOS 2058,1990-010A,2026-06-11T12:14:42.111168,15.11973969,.0009952,82.4661,314.9538,20.7009,339.4622,0,U,20465,999,95641,.19828E-3,.3433E-4,0
SL-14 R/B,1990-010B,2026-06-11T12:03:48.839904,14.83642626,.0019597,82.5016,179.2835,355.3900,4.7131,0,U,20466,999,94239,.37053E-4,.33E-5,0
